
""
0 GORIZONT 2
1 11440U 79062A   25049.70264788 -.00000058  00000-0  00000-0 0  9990
2 11440   6.9299 290.8569 0005630 346.6581 196.6718  1.00306475133172
0 UFO 4 (USA 108)
1 23467U 95003A   25050.58978912 -.00000013  00000-0  00000-0 0  9995
2 23467   9.6732  14.7294 0002435 289.2557 230.2013  1.00272140110112
0 OPTUS C1
1 27831U 03028B   25050.61235579 -.00000142  00000-0  00000-0 0  9992
2 27831   5.6732  75.2424 0006166 255.7199 194.9184  1.00275436 48227
0 INMARSAT 4-F1
1 28628U 05009A   25050.29224395  .00000043  00000-0  00000-0 0  9995
2 28628   4.5509  41.9803 0002267 315.7665  75.0158  1.00272139 72837
0 INMARSAT 4-F2
1 28899U 05044A   25050.48102532 -.00000250  00000-0  00000-0 0  9994
2 28899   4.4750  43.2650 0002196 300.8983 122.1678  1.00272161 70685
0 EUTE 172A (GE 23)
1 28924U 05052A   25050.59071633  .00000019  00000-0  00000-0 0  9993
2 28924   2.9900  82.5319 0006301 254.3967 199.4673  1.00270890 47491
0 CHINASAT 22A
1 29398U 06038A   25049.31157848 -.00000298  00000-0  00000-0 0  9995
2 29398  10.6174  41.1875 0000302 118.4231 242.2175  1.00102264 67533
0 INMARSAT 4-F3
1 33278U 08039A   25050.52316495 -.00000129  00000-0  00000-0 0  9993
2 33278   3.8948  29.2198 0002858 304.9985 265.8138  1.00271637 41701
0 WGS 6 (USA 244)
1 39222U 13041A   25048.49558745  .00000097  00000-0  00000+0 0  9998
2 39222   0.0167 125.8468 0000090 212.0647 212.9794  1.00272371 42204
0 WGS 7 (USA 263)
1 40746U 15036A   25049.58687773  .00000028  00000-0  00000-0 0  9997
2 40746   0.0160 116.8542 0000941 139.9768 278.2263  1.00275804 35021
0 INMARSAT 5-F3
1 40882U 15042A   25050.51966624  .00000061  00000-0  00000-0 0  9992
2 40882   0.0251  84.4671 0000473 282.9525 148.9207  1.00274242 34728
0 INTELSAT 33E
1 41748U 16053B   25050.58693193 -.00000335  00000-0  00000-0 0  9997
2 41748   0.3229  95.3668 0023329 174.7152 197.2923  1.00357105 31419
0 SJ-17
1 41838U 16065A   25050.75350297  .00000073  00000-0  00000+0 0  9991
2 41838   4.5200  78.4544 0005610 247.7049 277.0021  1.00270959 30391
0 WGS 8 (USA 272)
1 41879U 16075A   25049.72017573 -.00000194  00000-0  00000-0 0  9995
2 41879   0.0183 115.2311 0000550 339.6244 103.1010  1.00262961 29978
0 TJS-3
1 43874U 18110A   25050.76178307 -.00000203  00000-0  00000+0 0  9993
2 43874   1.2949  86.3583 0001814  29.6621  96.6151  1.00273104 22646
0 WGS 10 (USA 291)
1 44071U 19014A   25049.94696025  .00000057  00000-0  00000-0 0  9994
2 44071   0.0087 131.5005 0000367 269.5157 149.3233  1.00272356 21788
0 SJ-20
1 44910U 19097A   25050.74121264 -.00000058  00000-0  00000+0 0  9996
2 44910   3.6775  80.9823 0005348 216.6333 192.1753  1.00271416 18854
0 TJS-6
1 47613U 21010A   25050.59643815  .00000053  00000-0  00000-0 0  9996
2 47613   0.1888  94.8366 0001361 176.7312 271.3961  1.00270092 14973
0 SHIYAN 9 (SY-9)
1 47851U 21019A   25050.66521487 -.00000219  00000-0  00000+0 0  9991
2 47851  17.5744 308.6484 0015118  18.8453 208.4579  1.00267164 19285
0 SJ-21
1 49330U 21094A   25050.77132241 -.00000232  00000-0  00000+0 0  9991
2 49330  10.2763  43.4059 0077389  37.6001 133.3681  1.00252315 12418
0 INMARSAT 6-F2
1 55683U 23022A   25050.55696140 -.00000195  00000-0  00000-0 0  9990
2 55683   4.3345  31.8797 3046732 210.6821 182.8452  1.00962700  5682
0 LUCH (OLYMP) 2
1 55841U 23031A   25050.77185459  .00000076  00000-0  00000+0 0  9992
2 55841   0.0457 267.7959 0003117  63.3280 129.4447  1.01211256  7108
0 GAOFEN 13 02
1 55912U 23036A   25050.60067163 -.00000206  00000-0  00000-0 0  9996
2 55912   1.5179 314.4611 0004331   7.5892 192.1382  1.00274934  7259
0 TJS-10
1 58204U 23169A   25050.75627149  .00000020  00000-0  00000+0 0  9994
2 58204   1.2946  86.3761 0005177 199.0313 310.5489  1.00278104  4838
